ONEWEB-0201             
1 48241U 21031AH  22297.67832557 -.00000134  00000+0 -39562-3 0  9998
2 48241  87.9137 194.4374 0001744  76.3454 283.7870 13.14499740 73459
ONEWEB-0207             
1 48242U 21031AJ  22297.72906815 -.00000043  00000+0 -15015-3 0  9990
2 48242  87.9140 194.3938 0002001  73.2248 286.9101 13.14505345 73375
ONEWEB-0208             
1 48243U 21031AK  22297.70688018  .00000199  00000+0  50198-3 0  9992
2 48243  87.9226 194.4113 0001671  92.0198 268.1123 13.14505767 73387
ONEWEB-0200             
1 48244U 21031AL  22297.67094153 -.00000158  00000+0 -45947-3 0  9993
2 48244  87.9233 194.4133 0001681  92.6327 267.4995 13.14504811 73309
ONEWEB-0217             
1 48245U 21031AM  22298.14454695  .00000008  00000+0 -12675-4 0  9994
2 48245  87.9136 194.3030 0001676  95.2178 264.9143 13.14506530 73323
ONEWEB-0211             
1 48767U 21045A   22297.71228264  .00000108  00000+0  25231-3 0  9992
2 48767  87.9018 164.2206 0001274  89.6471 270.4805 13.15546569 69351
ONEWEB-0223             
1 48768U 21045B   22298.11370067 -.00000047  00000+0 -15819-3 0  9992
2 48768  87.9105 164.1389 0001047  92.1315 267.9935 13.15550821 70537
ONEWEB-0230             
1 48769U 21045C   22297.70595097  .00000228  00000+0  57295-3 0  9992
2 48769  87.9023 164.2442 0001430  78.5552 281.5739 13.15543873 69604
ONEWEB-0237             
1 48770U 21045D   22297.69538059  .00000156  00000+0  37945-3 0  9997
2 48770  87.9125 164.1383 0001061  71.0323 289.0922 13.15551427 69326
ONEWEB-0235             
1 48771U 21045E   22297.89608207 -.00000053  00000+0 -17552-3 0  9993
2 48771  87.9147 164.1534 0000515  67.1303 292.9881 13.15554287 70467
ONEWEB-0242             
1 48772U 21045F   22298.11791744 -.00000116  00000+0 -34260-3 0  9994
2 48772  87.9098 164.1214 0001462  70.7233 289.4055 13.15550640 70544
ONEWEB-0241             
1 48773U 21045G   22297.72495092  .00000220  00000+0  55156-3 0  9999
2 48773  87.9090 164.1671 0001232 103.4713 256.6555 13.15543527 69271
ONEWEB-0243             
1 48774U 21045H   22297.68057536 -.00000369  00000+0 -10137-2 0  9997
2 48774  87.9024 164.2170 0000991  63.8563 296.2669 13.15548155 69297
ONEWEB-0222             
1 48775U 21045J   22297.89818705 -.00000119  00000+0 -35068-3 0  9998
2 48775  87.9043 164.2017 0001274  91.1589 268.9688 13.15545949 70484
ONEWEB-0244             
1 48776U 21045K   22298.08369415  .00000180  00000+0  43926-3 0  9998
2 48776  87.9084 164.0811 0001221  55.6962 304.4284 13.16217402 71077
ONEWEB-0247             
1 48777U 21045L   22297.91509675 -.00001350  00000+0 -36205-2 0  9997
2 48777  87.9096 164.1160 0000708  81.9570 278.1640 13.15557870 70500
ONEWEB-0245             
1 48778U 21045M   22297.68269988  .00000098  00000+0  22532-3 0  9997
2 48778  87.9152 164.2136 0001531  98.8820 261.2483 13.15547021 69310
ONEWEB-0229             
1 48779U 21045N   22298.13271959 -.00000013  00000+0 -68375-4 0  9995
2 48779  87.9145 164.1124 0001160  89.2238 270.9025 13.15548202 70531
ONEWEB-0228             
1 48780U 21045P   22297.69116593  .00000183  00000+0  45291-3 0  9996
2 48780  87.9125 164.1945 0001345  74.1807 285.9472 13.15547843 69262
ONEWEB-0232             
1 48781U 21045Q   22297.68481360  .00000109  00000+0  25494-3 0  9994
2 48781  87.9034 164.2505 0001880  83.4783 276.6562 13.15555704 69582
ONEWEB-0231             
1 48782U 21045R   22298.12003954  .00000088  00000+0  19986-3 0  9999
2 48782  87.9012 164.0652 0000996  77.3772 282.7469 13.15550270 70474
ONEWEB-0234             
1 48783U 21045S   22297.68904225  .00000129  00000+0  30731-3 0  9998
2 48783  87.9096 164.2064 0001848  94.9067 265.2274 13.15551194 69413
ONEWEB-0238             
1 48784U 21045T   22297.70066210  .00000252  00000+0  63504-3 0  9996
2 48784  87.9034 164.2386 0001730  89.4445 270.6883 13.15551940 69316
ONEWEB-0240             
1 48785U 21045U   22297.72284664  .00000001  00000+0 -31621-4 0  9993
2 48785  87.9096 164.1862 0001168 106.7313 253.3946 13.15551166 69346
ONEWEB-0246             
1 48786U 21045V   22297.87073591  .00000085  00000+0  19304-3 0  9999
2 48786  87.9089 164.1571 0001097  77.7861 282.3392 13.15547131 70359
ONEWEB-0210             
1 48787U 21045W   22298.07356976  .00009621  00000+0  25513-1 0  9996
2 48787  87.9092 164.1259 0001540  63.5457 296.5831 13.15503542 70436
ONEWEB-0214             
1 48788U 21045X   22297.70381153  .00000206  00000+0  51271-3 0  9993
2 48788  87.9029 164.2145 0001344  38.5789 321.5437 13.15552003 69226
ONEWEB-0221             
1 48789U 21045Y   22297.71016763  .00000216  00000+0  54076-3 0  9994
2 48789  87.9090 164.2079 0001252  83.4949 276.6324 13.15547825 69317
ONEWEB-0213             
1 48790U 21045Z   22297.69750636  .00000394  00000+0  10131-2 0  9997
2 48790  87.9034 164.2378 0001065  75.5503 284.5745 13.15549324 69376
ONEWEB-0212             
1 48791U 21045AA  22297.67847310  .00000016  00000+0  88489-5 0  9997
2 48791  87.9047 164.2670 0001866  79.7769 280.3572 13.15551251 69368
ONEWEB-0227             
1 48792U 21045AB  22297.67213788 -.00000036  00000+0 -12994-3 0  9994
2 48792  87.9047 164.2821 0001392  87.4347 272.6943 13.15550550 70447
ONEWEB-0226             
1 48793U 21045AC  22297.66582421 -.00000032  00000+0 -11822-3 0  9992
2 48793  87.9148 164.2349 0000851  54.8538 305.2672 13.15550531 69285
ONEWEB-0224             
1 48794U 21045AD  22297.70805665  .00000197  00000+0  48893-3 0  9994
2 48794  87.9087 164.1761 0001882  91.3653 268.7693 13.15546278 69216
ONEWEB-0233             
1 48795U 21045AE  22298.02493187  .00000078  00000+0  17039-3 0  9999
2 48795  87.9156 164.1683 0001456  95.8424 264.2872 13.16194318 70384
ONEWEB-0190             
1 48796U 21045AF  22298.07989457  .00000227  00000+0  56996-3 0  9996
2 48796  87.9157 164.1548 0000198  90.0539 270.0614 13.15547357 70475
ONEWEB-0236             
1 48797U 21045AG  22298.02074264  .00000072  00000+0  15662-3 0  9996
2 48797  87.9035 164.1530 0001471  80.1801 279.9496 13.15550312 70357
ONEWEB-0248             
1 48798U 21045AH  22298.03341999 -.00000015  00000+0 -74415-4 0  9991
2 48798  87.9095 164.1398 0001084 124.0891 236.0342 13.15546604 70514
ONEWEB-0225             
1 48799U 21045AJ  22298.13059064 -.00000197  00000+0 -55818-3 0  9998
2 48799  87.9039 164.1666 0000852  98.4843 261.6384 13.15550549 70551
ONEWEB-0215             
1 48800U 21045AK  22298.10100530  .00000076  00000+0  16719-3 0  9994
2 48800  87.9091 164.1187 0000741 127.7208 232.3990 13.15545260 70404
ONEWEB-0216             
1 48801U 21045AL  22298.11157947 -.00000346  00000+0 -95195-3 0  9997
2 48801  87.9034 164.1733 0001495  63.7189 296.4095 13.15548326 70417
ONEWEB-0239             
1 48802U 21045AM  22297.65944927 -.00000362  00000+0 -99577-3 0  9994
2 48802  87.9035 164.2682 0000863 124.1613 235.9599 13.15547575 69279
ONEWEB-0249             
1 48967U 21060A   22297.58538573 -.00000001  00000+0 -36982-4 0  9993
2 48967  87.9038 133.9420 0001641  84.7050 275.4268 13.16595862 64391
ONEWEB-0250             
1 48968U 21060B   22297.58960058  .00000019  00000+0  16960-4 0  9992
2 48968  87.9040 133.9459 0001313  98.5161 261.6118 13.16593705 64372
ONEWEB-0252             
1 48970U 21060D   22297.99701126  .00000122  00000+0  28636-3 0  9996
2 48970  87.9049 133.8471 0001368  82.7739 277.3547 13.16591852 65780
ONEWEB-0253             
1 48971U 21060E   22297.60646696 -.00000330  00000+0 -89710-3 0  9998
2 48971  87.9026 133.9377 0001056  90.3882 269.7370 13.16593854 64377
ONEWEB-0254             
1 48972U 21060F   22297.61494252  .00000371  00000+0  93658-3 0  9998
2 48972  87.9049 133.9103 0001127  89.8609 270.2651 13.16593774 64379
ONEWEB-0255             
1 48973U 21060G   22298.03290651 -.00000030  00000+0 -11121-3 0  9992
2 48973  87.9037 133.9004 0001516  86.3884 273.7420 13.16596803 65791
ONEWEB-0256             
1 48974U 21060H   22297.60226544  .00000070  00000+0  14946-3 0  9995
2 48974  87.9024 133.9316 0001739  69.3121 290.8196 13.16595858 64413
ONEWEB-0257             
1 48975U 21060J   22297.63604679  .00000125  00000+0  29207-3 0  9995
2 48975  87.9034 133.9695 0001410  79.2933 280.8357 13.16596244 64375
ONEWEB-0258             
1 48976U 21060K   22297.63815724 -.00000028  00000+0 -10815-3 0  9990
2 48976  87.9040 133.9754 0001505  90.8127 269.3176 13.16592984 64387
ONEWEB-0259             
1 48977U 21060L   22297.63180630  .00000076  00000+0  16557-3 0  9992
2 48977  87.9043 133.9546 0001407 101.5425 258.5863 13.16598502 64411
ONEWEB-0260             
1 48978U 21060M   22297.62549199  .00000057  00000+0  11658-3 0  9997
2 48978  87.9030 133.9433 0001616  50.7649 309.3625 13.16596219 64399
ONEWEB-0261             
1 48979U 21060N   22297.81969958  .00000046  00000+0  86831-4 0  9992
2 48979  87.9032 133.9142 0001208  75.9418 284.1847 13.16594966 64471
ONEWEB-0262             
1 48980U 21060P   22297.57271964 -.00000004  00000+0 -43611-4 0  9995
2 48980  87.9050 133.9305 0001229 112.8710 247.2550 13.16593351 64404
ONEWEB-0263             
1 48981U 21060Q   22297.60437029  .00000056  00000+0  11212-3 0  9992
2 48981  87.9055 133.9256 0000917  99.5756 260.5479 13.16596547 64373
ONEWEB-0264             
1 48982U 21060R   22298.02127955  .00005286  00000+0  13780-1 0  9994
2 48982  87.9024 133.8139 0002048  82.7387 277.3977 13.16620131 65726
ONEWEB-0266             
1 48984U 21060T   22298.04347344 -.00000111  00000+0 -32287-3 0  9993
2 48984  87.9048 133.8472 0001678  88.5736 271.5587 13.16595908 65720
ONEWEB-0267             
1 48985U 21060U   22297.59805149  .00000021  00000+0  21516-4 0  9997
2 48985  87.9050 133.9332 0001020  72.2259 287.8983 13.16595276 64379
ONEWEB-0268             
1 48986U 21060V   22298.02236993 -.00002778  00000+0 -73020-2 0  9990
2 48986  87.9049 133.8536 0001606  77.5582 282.5729 13.16611621 65981
